[{"OBJECT_NAME":"LAPAN-A3","OBJECT_ID":"2016-040E","EPOCH":"2026-03-09T23:01:57.724896","MEAN_MOTION":15.3238951,"ECCENTRICITY":0.00109839,"INCLINATION":97.1488,"RA_OF_ASC_NODE":68.4254,"ARG_OF_PERICENTER":22.062,"MEAN_ANOMALY":338.1093,"EPHEMERIS_TYPE":0,"CLASSIFICATION_TYPE":"U","NORAD_CAT_ID":41603,"ELEMENT_SET_NO":999,"REV_AT_EPOCH":53961,"BSTAR":0.00017567445,"MEAN_MOTION_DOT":5.428e-5,"MEAN_MOTION_DDOT":0},{"OBJECT_NAME":"STARLINK-34724","OBJECT_ID":"2025-259W","EPOCH":"2026-03-08T22:53:15.385920","MEAN_MOTION":15.27595092,"ECCENTRICITY":0.0002544,"INCLINATION":43.0058,"RA_OF_ASC_NODE":278.9373,"ARG_OF_PERICENTER":271.3973,"MEAN_ANOMALY":88.6587,"EPHEMERIS_TYPE":0,"CLASSIFICATION_TYPE":"U","NORAD_CAT_ID":66442,"ELEMENT_SET_NO":999,"REV_AT_EPOCH":1937,"BSTAR":0.0010179236,"MEAN_MOTION_DOT":0.00027869,"MEAN_MOTION_DDOT":0}]
